NORAD_CAT_ID,OBJECT_NAME,OBJECT_TYPE,EPOCH,MEAN_MOTION,ECCENTRICITY,INCLINATION,RA_OF_ASC_NODE,ARG_OF_PERICENTER,MEAN_ANOMALY,BSTAR,MEAN_MOTION_DOT,MEAN_MOTION_DDOT,TLE_LINE0,TLE_LINE1,TLE_LINE2,SEMIMAJOR_AXIS,PERIOD,APOGEE,PERIGEE,DECAYED
56488.0,STARLINK-6204,PAYLOAD,2024-02-15 14:34:32,14.98326649,0.0002846,70.0014,203.4166,270.7301,89.3532,-2.0261e-05,-3.35e-06,0.0,0 STARLINK-6204,1 56488U 23064AS  24046.60731623 -.00000335  00000-0 -20261-4 0  9998,2 56488  70.0014 203.4166 0002846 270.7301  89.3532 14.98326649 43422,6950.203,96.107,574.046,570.09,0.0
56488.0,STARLINK-6204,PAYLOAD,2024-02-15 19:22:56,14.98327226,0.0002839,70.0014,202.9117,270.6494,89.4339,-1.2983e-05,-2.48e-06,0.0,0 STARLINK-6204,1 56488U 23064AS  24046.80759599 -.00000248  00000-0 -12983-4 0  9997,2 56488  70.0014 202.9117 0002839 270.6494  89.4339 14.98327226 43457,6950.201,96.107,574.04,570.093,0.0
56488.0,STARLINK-6204,PAYLOAD,2024-02-16 03:23:36,14.98329785,0.0002847,70.0016,202.0702,270.4022,89.6811,1.9476e-06,-7e-07,0.0,0 STARLINK-6204,1 56488U 23064AS  24047.14139408 -.00000070  00000-0  19476-5 0  9993,2 56488  70.0016 202.0702 0002847 270.4022  89.6811 14.98329785 43868,6950.194,96.107,574.037,570.08,0.0
56488.0,STARLINK-6204,PAYLOAD,2024-02-16 14:36:32,14.98334837,0.0002891,70.0013,200.8919,268.4273,91.6554,8.05e-07,-8.3e-07,0.0,0 STARLINK-6204,1 56488U 23064AS  24047.60870993 -.00000083  00000-0  80500-6 0  9996,2 56488  70.0013 200.8919 0002891 268.4273  91.6554 14.98334837 43574,6950.178,96.107,574.052,570.034,0.0
56488.0,STARLINK-6204,PAYLOAD,2024-02-16 19:24:56,14.98336158,0.0002879,70.0014,200.3871,268.4834,91.5995,1.7518e-05,1.16e-06,0.0,0 STARLINK-6204,1 56488U 23064AS  24047.80898799  .00000116  00000-0  17518-4 0  9995,2 56488  70.0014 200.3871 0002879 268.4834  91.5995 14.98336158 43965,6950.174,96.107,574.04,570.038,0.0
56488.0,STARLINK-6204,PAYLOAD,2024-02-16 21:01:04,14.98337611,0.000288,70.0015,200.2187,268.385,91.6979,3.2862e-05,2.99e-06,0.0,0 STARLINK-6204,1 56488U 23064AS  24047.87574639  .00000299  00000-0  32862-4 0  9997,2 56488  70.0015 200.2187 0002880 268.3850  91.6979 14.98337611 43614,6950.169,96.107,574.036,570.033,0.0
56488.0,STARLINK-6204,PAYLOAD,2024-02-17 11:26:18,14.98322809,0.0002855,70.0017,198.7041,268.668,91.4152,-3.5192e-05,-5.13e-06,0.0,0 STARLINK-6204,1 56488U 23064AS  24048.47659760 -.00000513  00000-0 -35192-4 0  9993,2 56488  70.0017 198.7041 0002855 268.6680  91.4152 14.98322809 44066,6950.215,96.107,574.064,570.096,0.0
56488.0,STARLINK-6204,PAYLOAD,2024-02-17 14:38:34,14.9832118,0.0002882,70.0016,198.3676,268.5242,91.5587,-5.0625e-05,-6.97e-06,0.0,0 STARLINK-6204,1 56488U 23064AS  24048.61011957 -.00000697  00000-0 -50625-4 0  9990,2 56488  70.0016 198.3676 0002882 268.5242  91.5587 14.98321180 43724,6950.22,96.108,574.088,570.082,0.0
56488.0,STARLINK-6204,PAYLOAD,2024-02-17 19:26:58,14.98323817,0.0002983,70.0016,197.8635,268.3605,91.7212,-7.4068e-05,-9.76e-06,0.0,0 STARLINK-6204,1 56488U 23064AS  24048.81039897 -.00000976  00000-0 -74068-4 0  9992,2 56488  70.0016 197.8635 0002983 268.3605  91.7212 14.98323817 43755,6950.212,96.107,574.15,570.004,0.0
56488.0,STARLINK-6204,PAYLOAD,2024-02-18 11:28:18,14.98334181,0.000306,70.0017,196.1808,267.8127,92.2682,1.2046e-05,5.1e-07,0.0,0 STARLINK-6204,1 56488U 23064AS  24049.47799022  .00000051  00000-0  12046-4 0  9998,2 56488  70.0017 196.1808 0003060 267.8127  92.2682 14.98334181 44215,6950.18,96.107,574.172,569.918,0.0
56488.0,STARLINK-6204,PAYLOAD,2024-02-18 14:40:34,14.98333538,0.0003083,70.0016,195.8439,267.3387,92.742,3.7538e-05,3.55e-06,0.0,0 STARLINK-6204,1 56488U 23064AS  24049.61150952  .00000355  00000-0  37538-4 0  9997,2 56488  70.0016 195.8439 0003083 267.3387  92.7420 14.98333538 43879,6950.182,96.107,574.19,569.904,0.0
56488.0,STARLINK-6204,PAYLOAD,2024-02-18 19:28:58,14.98340803,0.0003071,70.0015,195.3385,267.5468,92.5339,6.0885e-05,6.34e-06,0.0,0 STARLINK-6204,1 56488U 23064AS  24049.81178321  .00000634  00000-0  60885-4 0  9990,2 56488  70.0015 195.3385 0003071 267.5468  92.5339 14.98340803 44266,6950.159,96.106,574.159,569.89,0.0
56488.0,STARLINK-6204,PAYLOAD,2024-02-19 03:29:38,14.98333517,0.0003071,70.0018,194.4947,271.2712,88.8095,-7.2873e-05,-9.62e-06,0.0,0 STARLINK-6204,1 56488U 23064AS  24050.14559021 -.00000962  00000-0 -72873-4 0  9994,2 56488  70.0018 194.4947 0003071 271.2712  88.8095 14.98333517 44314,6950.182,96.107,574.181,569.913,0.0
56488.0,STARLINK-6204,PAYLOAD,2024-02-19 11:30:19,14.98321461,0.000273,70.0028,193.6549,271.0035,89.0811,4.1657e-05,4.04e-06,0.0,0 STARLINK-6204,1 56488U 23064AS  24050.47939700  .00000404  00000-0  41657-4 0  9991,2 56488  70.0028 193.6549 0002730 271.0035  89.0811 14.98321461 44360,6950.219,96.108,573.982,570.187,0.0
56488.0,STARLINK-6204,PAYLOAD,2024-02-19 13:06:28,14.98320331,0.0002806,70.0018,193.4862,268.512,91.5718,2.8184e-05,2.43e-06,0.0,0 STARLINK-6204,1 56488U 23064AS  24050.54615803  .00000243  00000-0  28184-4 0  9995,2 56488  70.0018 193.4862 0002806 268.5120  91.5718 14.98320331 44016,6950.223,96.108,574.038,570.138,0.0
56488.0,STARLINK-6204,PAYLOAD,2024-02-19 19:31:00,14.9832523,0.0003014,70.0013,192.8134,268.4321,91.6493,1.5732e-05,9.5e-07,0.0,0 STARLINK-6204,1 56488U 23064AS  24050.81319584  .00000095  00000-0  15732-4 0  9992,2 56488  70.0013 192.8134 0003014 268.4321  91.6493 14.98325230 44058,6950.208,96.107,574.167,569.978,0.0
56488.0,STARLINK-6204,PAYLOAD,2024-02-20 11:32:20,14.98333594,0.0003001,70.0014,191.1303,268.1959,91.8857,-5.935e-05,-8.01e-06,0.0,0 STARLINK-6204,1 56488U 23064AS  24051.48079301 -.00000801  00000-0 -59350-4 0  9997,2 56488  70.0014 191.1303 0003001 268.1959  91.8857 14.98333594 44518,6950.182,96.107,574.133,569.961,0.0
56488.0,STARLINK-6204,PAYLOAD,2024-02-20 14:44:36,14.98334158,0.0002984,70.0015,190.7937,268.8329,91.2488,-4.498e-05,-6.3e-06,0.0,0 STARLINK-6204,1 56488U 23064AS  24051.61431205 -.00000630  00000-0 -44980-4 0  9990,2 56488  70.0015 190.7937 0002984 268.8329  91.2488 14.98334158 44177,6950.18,96.107,574.119,569.971,0.0
56488.0,STARLINK-6204,PAYLOAD,2024-02-20 19:33:00,14.98337471,0.0002955,70.0015,190.2889,269.0769,91.0052,-7.7373e-06,-1.85e-06,0.0,0 STARLINK-6204,1 56488U 23064AS  24051.81458823 -.00000185  00000-0 -77373-5 0  9995,2 56488  70.0015 190.2889 0002955 269.0769  91.0052 14.98337471 44207,6950.17,96.107,574.089,569.981,0.0
56488.0,STARLINK-6204,PAYLOAD,2024-02-21 11:34:21,14.98327783,0.0002865,70.0016,188.6058,270.3136,89.7694,5.322e-05,5.42e-06,0.0,0 STARLINK-6204,1 56488U 23064AS  24052.48219183  .00000542  00000-0  53220-4 0  9992,2 56488  70.0016 188.6058 0002865 270.3136  89.7694 14.98327783 44661,6950.2,96.107,574.056,570.074,0.0
56488.0,STARLINK-6204,PAYLOAD,2024-02-21 14:46:37,14.98327945,0.000286,70.0017,188.2692,270.5721,89.511,5.6361e-05,5.8e-06,0.0,0 STARLINK-6204,1 56488U 23064AS  24052.61571175  .00000580  00000-0  56361-4 0  9990,2 56488  70.0017 188.2692 0002860 270.5721  89.5110 14.98327945 44323,6950.199,96.107,574.052,570.076,0.0
56488.0,STARLINK-6204,PAYLOAD,2024-02-21 17:58:53,14.98330927,0.0002746,70.002,187.9339,265.1259,94.9587,7.3573e-05,7.85e-06,0.0,0 STARLINK-6204,1 56488U 23064AS  24052.74922910  .00000785  00000-0  73573-4 0  9992,2 56488  70.0020 187.9339 0002746 265.1259  94.9587 14.98330927 44344,6950.19,96.107,573.964,570.147,0.0
56488.0,STARLINK-6204,PAYLOAD,2024-02-22 11:36:22,14.98330247,0.000264,70.0023,186.0833,260.7551,99.331,-3.3203e-05,-4.89e-06,0.0,0 STARLINK-6204,1 56488U 23064AS  24053.48359174 -.00000489  00000-0 -33203-4 0  9999,2 56488  70.0023 186.0833 0002640 260.7551  99.3310 14.98330247 44815,6950.192,96.107,573.892,570.222,0.0
56488.0,STARLINK-6204,PAYLOAD,2024-02-22 14:48:38,14.98329221,0.0002738,70.0021,185.7457,267.1431,92.9415,-4.8491e-05,-6.71e-06,0.0,0 STARLINK-6204,1 56488U 23064AS  24053.61711305 -.00000671  00000-0 -48491-4 0  9990,2 56488  70.0021 185.7457 0002738 267.1431  92.9415 14.98329221 44474,6950.195,96.107,573.963,570.157,0.0
56488.0,STARLINK-6204,PAYLOAD,2024-02-22 18:00:54,14.98328896,0.0002751,70.002,185.4091,266.5991,93.4854,-5.1347e-05,-7.06e-06,0.0,0 STARLINK-6204,1 56488U 23064AS  24053.75063333 -.00000706  00000-0 -51347-4 0  9999,2 56488  70.0020 185.4091 0002751 266.5991  93.4854 14.98328896 44495,6950.196,96.107,573.973,570.149,0.0
56488.0,STARLINK-6204,PAYLOAD,2024-02-23 11:38:23,14.98332347,0.0002899,70.0017,183.5571,266.6263,93.4565,-2.1279e-05,-3.47e-06,0.0,0 STARLINK-6204,1 56488U 23064AS  24054.48498926 -.00000347  00000-0 -21279-4 0  9992,2 56488  70.0017 183.5571 0002899 266.6263  93.4565 14.98332347 44966,6950.186,96.107,574.065,570.036,0.0
56488.0,STARLINK-6204,PAYLOAD,2024-02-23 14:50:39,14.98332366,0.000295,70.0015,183.2205,268.068,92.0141,8.8455e-06,1.3e-07,0.0,0 STARLINK-6204,1 56488U 23064AS  24054.61850828  .00000013  00000-0  88455-5 0  9998,2 56488  70.0015 183.2205 0002950 268.0680  92.0141 14.98332366 44621,6950.186,96.107,574.101,570.0,0.0
56488.0,STARLINK-6204,PAYLOAD,2024-02-23 18:02:55,14.98334914,0.0002985,70.0016,182.8844,270.3529,89.7288,2.955e-06,-5.8e-07,0.0,0 STARLINK-6204,1 56488U 23064AS  24054.75202665 -.00000058  00000-0  29550-5 0  9994,2 56488  70.0016 182.8844 0002985 270.3529  89.7288 14.98334914 44640,6950.178,96.107,574.117,569.968,0.0
56488.0,STARLINK-6204,PAYLOAD,2024-02-24 11:40:24,14.98323619,0.0003014,70.0019,181.0327,268.4844,91.597,-2.4927e-06,-1.23e-06,0.0,0 STARLINK-6204,1 56488U 23064AS  24055.48639404 -.00000123  00000-0 -24927-5 0  9997,2 56488  70.0019 181.0327 0003014 268.4844  91.5970 14.98323619 45114,6950.213,96.107,574.172,569.983,0.0
56488.0,STARLINK-6204,PAYLOAD,2024-02-24 14:52:40,14.9832768,0.0003027,70.0019,180.6961,267.011,93.0703,1.7087e-05,1.11e-06,0.0,0 STARLINK-6204,1 56488U 23064AS  24055.61991124  .00000111  00000-0  17087-4 0  9995,2 56488  70.0019 180.6961 0003027 267.0110  93.0703 14.98327680 44772,6950.2,96.107,574.169,569.961,0.0
